[{"OBJECT_NAME":"ORBCOMM FM114","OBJECT_ID":"2015-081A","EPOCH":"2026-03-04T12:45:18.766080","MEAN_MOTION":14.58720238,"ECCENTRICITY":0.000125,"INCLINATION":47.0042,"RA_OF_ASC_NODE":136.7554,"ARG_OF_PERICENTER":81.2242,"MEAN_ANOMALY":278.8785,"EPHEMERIS_TYPE":0,"CLASSIFICATION_TYPE":"U","NORAD_CAT_ID":41179,"ELEMENT_SET_NO":999,"REV_AT_EPOCH":54247,"BSTAR":0.00021256,"MEAN_MOTION_DOT":8.31e-6,"MEAN_MOTION_DDOT":0},{"OBJECT_NAME":"ORBCOMM FM119","OBJECT_ID":"2015-081B","EPOCH":"2026-03-04T02:52:11.990208","MEAN_MOTION":14.58662737,"ECCENTRICITY":9.175e-5,"INCLINATION":47.0009,"RA_OF_ASC_NODE":48.0604,"ARG_OF_PERICENTER":218.6911,"MEAN_ANOMALY":141.3909,"EPHEMERIS_TYPE":0,"CLASSIFICATION_TYPE":"U","NORAD_CAT_ID":41180,"ELEMENT_SET_NO":999,"REV_AT_EPOCH":54366,"BSTAR":0.00025219513,"MEAN_MOTION_DOT":1.016e-5,"MEAN_MOTION_DDOT":0},{"OBJECT_NAME":"ORBCOMM FM105","OBJECT_ID":"2015-081C","EPOCH":"2026-03-04T18:21:37.664928","MEAN_MOTION":14.45489071,"ECCENTRICITY":0.000124,"INCLINATION":47.0009,"RA_OF_ASC_NODE":75.5032,"ARG_OF_PERICENTER":15.0633,"MEAN_ANOMALY":345.0284,"EPHEMERIS_TYPE":0,"CLASSIFICATION_TYPE":"U","NORAD_CAT_ID":41181,"ELEMENT_SET_NO":999,"REV_AT_EPOCH":53844,"BSTAR":0.00015298,"MEAN_MOTION_DOT":3.86e-6,"MEAN_MOTION_DDOT":0},{"OBJECT_NAME":"ORBCOMM FM110","OBJECT_ID":"2015-081D","EPOCH":"2026-03-04T14:08:25.469088","MEAN_MOTION":14.5872381,"ECCENTRICITY":0.0003526,"INCLINATION":47.0014,"RA_OF_ASC_NODE":135.9562,"ARG_OF_PERICENTER":298.9897,"MEAN_ANOMALY":61.0636,"EPHEMERIS_TYPE":0,"CLASSIFICATION_TYPE":"U","NORAD_CAT_ID":41182,"ELEMENT_SET_NO":999,"REV_AT_EPOCH":54235,"BSTAR":0.00032327,"MEAN_MOTION_DOT":1.353e-5,"MEAN_MOTION_DDOT":0},{"OBJECT_NAME":"ORBCOMM FM118","OBJECT_ID":"2015-081E","EPOCH":"2026-03-04T13:19:35.283072","MEAN_MOTION":14.58719732,"ECCENTRICITY":0.0003911,"INCLINATION":47.0036,"RA_OF_ASC_NODE":136.4306,"ARG_OF_PERICENTER":268.16,"MEAN_ANOMALY":91.8838,"EPHEMERIS_TYPE":0,"CLASSIFICATION_TYPE":"U","NORAD_CAT_ID":41183,"ELEMENT_SET_NO":999,"REV_AT_EPOCH":54245,"BSTAR":0.00031771,"MEAN_MOTION_DOT":1.326e-5,"MEAN_MOTION_DDOT":0},{"OBJECT_NAME":"ORBCOMM FM112","OBJECT_ID":"2015-081F","EPOCH":"2026-03-04T00:14:48.712992","MEAN_MOTION":14.58718421,"ECCENTRICITY":9.935e-5,"INCLINATION":46.9996,"RA_OF_ASC_NODE":47.508,"ARG_OF_PERICENTER":53.6338,"MEAN_ANOMALY":306.4639,"EPHEMERIS_TYPE":0,"CLASSIFICATION_TYPE":"U","NORAD_CAT_ID":41184,"ELEMENT_SET_NO":999,"REV_AT_EPOCH":54359,"BSTAR":0.00025688847,"MEAN_MOTION_DOT":1.04e-5,"MEAN_MOTION_DDOT":0},{"OBJECT_NAME":"ORBCOMM FM113","OBJECT_ID":"2015-081G","EPOCH":"2026-03-04T07:55:09.195456","MEAN_MOTION":14.58720467,"ECCENTRICITY":5.78e-5,"INCLINATION":47.0013,"RA_OF_ASC_NODE":46.3641,"ARG_OF_PERICENTER":65.7549,"MEAN_ANOMALY":294.3397,"EPHEMERIS_TYPE":0,"CLASSIFICATION_TYPE":"U","NORAD_CAT_ID":41185,"ELEMENT_SET_NO":999,"REV_AT_EPOCH":54362,"BSTAR":0.00025990872,"MEAN_MOTION_DOT":1.054e-5,"MEAN_MOTION_DDOT":0},{"OBJECT_NAME":"ORBCOMM FM115","OBJECT_ID":"2015-081H","EPOCH":"2026-03-04T11:44:38.270976","MEAN_MOTION":14.63108811,"ECCENTRICITY":0.00011995,"INCLINATION":46.9972,"RA_OF_ASC_NODE":241,"ARG_OF_PERICENTER":208.9287,"MEAN_ANOMALY":151.1534,"EPHEMERIS_TYPE":0,"CLASSIFICATION_TYPE":"U","NORAD_CAT_ID":41186,"ELEMENT_SET_NO":999,"REV_AT_EPOCH":54588,"BSTAR":0.00027093457,"MEAN_MOTION_DOT":1.229e-5,"MEAN_MOTION_DDOT":0},{"OBJECT_NAME":"ORBCOMM FM108","OBJECT_ID":"2015-081J","EPOCH":"2026-03-03T16:13:42.044448","MEAN_MOTION":14.58730739,"ECCENTRICITY":0.00022009,"INCLINATION":47.0059,"RA_OF_ASC_NODE":320.9947,"ARG_OF_PERICENTER":59.3085,"MEAN_ANOMALY":300.8017,"EPHEMERIS_TYPE":0,"CLASSIFICATION_TYPE":"U","NORAD_CAT_ID":41187,"ELEMENT_SET_NO":999,"REV_AT_EPOCH":54467,"BSTAR":0.00031189535,"MEAN_MOTION_DOT":1.299e-5,"MEAN_MOTION_DDOT":0},{"OBJECT_NAME":"ORBCOMM FM117","OBJECT_ID":"2015-081K","EPOCH":"2026-03-04T01:15:49.997664","MEAN_MOTION":14.58723735,"ECCENTRICITY":0.00025248,"INCLINATION":47.0022,"RA_OF_ASC_NODE":317.8837,"ARG_OF_PERICENTER":72.5276,"MEAN_ANOMALY":287.5886,"EPHEMERIS_TYPE":0,"CLASSIFICATION_TYPE":"U","NORAD_CAT_ID":41188,"ELEMENT_SET_NO":999,"REV_AT_EPOCH":54477,"BSTAR":0.00030901696,"MEAN_MOTION_DOT":1.285e-5,"MEAN_MOTION_DDOT":0},{"OBJECT_NAME":"ORBCOMM FM116","OBJECT_ID":"2015-081L","EPOCH":"2026-03-04T07:22:40.734624","MEAN_MOTION":14.58714866,"ECCENTRICITY":0.00026613,"INCLINATION":47.003,"RA_OF_ASC_NODE":46.4607,"ARG_OF_PERICENTER":293.9812,"MEAN_ANOMALY":66.0795,"EPHEMERIS_TYPE":0,"CLASSIFICATION_TYPE":"U","NORAD_CAT_ID":41189,"ELEMENT_SET_NO":999,"REV_AT_EPOCH":54362,"BSTAR":0.00030192825,"MEAN_MOTION_DOT":1.252e-5,"MEAN_MOTION_DDOT":0}]
